[{"OBJECT_NAME":"LEMU NGE","OBJECT_ID":"2024-149BS","EPOCH":"2026-03-09T16:59:36.530880","MEAN_MOTION":14.9450043,"ECCENTRICITY":0.00016851,"INCLINATION":97.6905,"RA_OF_ASC_NODE":145.6856,"ARG_OF_PERICENTER":57.8753,"MEAN_ANOMALY":302.2631,"EPHEMERIS_TYPE":0,"CLASSIFICATION_TYPE":"U","NORAD_CAT_ID":60532,"ELEMENT_SET_NO":999,"REV_AT_EPOCH":8509,"BSTAR":0.00029251922,"MEAN_MOTION_DOT":3.102e-5,"MEAN_MOTION_DDOT":0},{"OBJECT_NAME":"SAUDISAT 1B (SO-42)","OBJECT_ID":"2000-057E","EPOCH":"2026-03-09T23:18:23.116032","MEAN_MOTION":14.90902697,"ECCENTRICITY":0.00345198,"INCLINATION":64.5499,"RA_OF_ASC_NODE":306.1635,"ARG_OF_PERICENTER":324.2198,"MEAN_ANOMALY":35.6599,"EPHEMERIS_TYPE":0,"CLASSIFICATION_TYPE":"U","NORAD_CAT_ID":26549,"ELEMENT_SET_NO":999,"REV_AT_EPOCH":37681,"BSTAR":0.00018442418,"MEAN_MOTION_DOT":1.685e-5,"MEAN_MOTION_DDOT":0}]
